
AEHF-2 (USA 235)
1 38254U 12019A   26170.03411109 -.00000144  00000+0  00000+0 0  9998
2 38254   6.6546  57.4758 0002252  25.6809 179.8214  1.00271676  7007

APSTAR-7
1 38107U 12013A   26170.19516853 -.00000108  00000+0  00000+0 0  9998
2 38107   0.0276  72.2983 0002577  24.5823 317.2969  1.00271483 51821

ARABSAT-5C
1 37810U 11049B   26170.25526774  .00000117  00000+0  00000+0 0  9995
2 37810   0.0545  22.8190 0003455  83.4496 273.1031  1.00272638 54058

ASIASAT 7
1 37933U 11069A   26170.08655836 -.00000340  00000+0  00000+0 0  9995
2 37933   0.0383  84.2904 0001251 338.6783 341.0266  1.00270992 44870

ASTRA 1N
1 37775U 11041A   26170.25509440  .00000114  00000+0  00000+0 0  9995
2 37775   0.0707  25.8295 0006352  75.7319 276.9574  1.00271786 44543

BEIDOU-2 G5
1 38091U 12008A   26170.12037856  .00000050  00000+0  00000+0 0  9993
2 38091   3.5794  69.6867 0009073 272.9210  26.7337  1.00272397 52382

BEIDOU-2 IGSO-5
1 37948U 11073A   26169.66754444 -.00000192  00000+0  00000+0 0  9998
2 37948  47.6748 271.5267 0113971 221.7702 105.6518  1.00272695 53143

BSAT-3C (JCSAT-110R)
1 37776U 11041B   26170.06433595 -.00000356  00000+0  00000+0 0  9991
2 37776   0.0172 334.2895 0000094 182.5935 243.5122  1.00268522 50484

ECHOSTAR 17
1 38551U 12035A   26170.15888777 -.00000082  00000+0  00000+0 0  9999
2 38551   0.0181  15.1674 0002118  72.1043 130.2109  1.00270885 51088

EUTELSAT 16A
1 37836U 11057A   26170.25448773  .00000098  00000+0  00000+0 0  9992
2 37836   0.0408 343.8201 0005700 104.3324 286.9607  1.00269474  7357

EUTELSAT 7 WEST A
1 37816U 11051A   26170.24989437 -.00000067  00000+0  00000+0 0  9997
2 37816   0.0666  19.9132 0004180  78.3339 251.8684  1.00271742 53899

HYLAS 2
1 38741U 12043B   26170.22765235 -.00000264  00000+0  00000+0 0  9992
2 38741   2.4335  81.0458 0002383  27.3107 168.4752  1.00272349 50796

INTELSAT 18 (IS-18)
1 37834U 11056A   26170.21086240  .00000046  00000+0  00000+0 0  9995
2 37834   0.0368 273.1459 0001760 174.3940  75.7990  1.00271194 53838

INTELSAT 19 (IS-19)
1 38356U 12030A   26170.14168064 -.00000063  00000+0  00000+0 0  9995
2 38356   0.0183   9.3106 0002947  86.6833  28.3730  1.00271504 50473

INTELSAT 20 (IS-20)
1 38740U 12043A   26170.12237191  .00000000  00000+0  00000+0 0  9992
2 38740   0.0349  67.9275 0001611 107.7521 204.2199  1.00269776 50761

INTELSAT 22 (IS-22)
1 38098U 12011A   26170.19955646 -.00000065  00000+0  00000+0 0  9994
2 38098   0.0152  39.7365 0001532  52.4251 319.2100  1.00272420  7204

JCSAT-13
1 38331U 12023A   26170.27591446 -.00000362  00000+0  00000+0 0  9990
2 38331   0.0228  60.7872 0003125  51.2856  18.7485  1.00270087 51565

LUCH-5A
1 37951U 11074B   26169.52461317 -.00000060  00000+0  00000+0 0  9996
2 37951   8.7582  73.7878 0002335  26.9496 161.8222  1.00270425 53063

METEOSAT-10 (MSG-3)
1 38552U 12035B   26170.03753987 -.00000014  00000+0  00000+0 0  9996
2 38552   4.6769  61.0157 0001437   1.0805 218.9888  1.00266258 50870

MUOS-1
1 38093U 12009A   26170.24357685 -.00000135  00000+0  00000+0 0  9999
2 38093   5.4799  47.1510 0058474   1.9694 206.0192  1.00269945 52467

NIGCOMSAT 1R
1 38014U 11077A   26170.18849516  .00000139  00000+0  00000+0 0  9991
2 38014   0.0461 112.7931 0002576 238.1812  26.7765  1.00270792 52972

NIMIQ 6
1 38342U 12026A   26170.24543946 -.00000180  00000+0  00000+0 0  9992
2 38342   0.0106 339.4156 0002611 104.3331 180.9693  1.00272220 50439

PAKSAT-1R
1 37779U 11042A   26170.25890775  .00000147  00000+0  00000+0 0  9990
2 37779   0.6954  84.5738 0003308 339.0487 335.0618  1.00267406 54496

QUETZSAT 1
1 37826U 11054A   26170.24252025 -.00000248  00000+0  00000+0 0  9998
2 37826   0.0305  55.4073 0002592  33.0971 189.2721  1.00272217 49893

SES-2
1 37809U 11049A   26170.23381216 -.00000202  00000+0  00000+0 0  9997
2 37809   0.0676  97.3973 0002650 348.5232 178.7069  1.00271850 53983

SES-4
1 38087U 12007A   26170.17566844 -.00000174  00000+0  00000+0 0  9994
2 38087   0.0260  30.6944 0002826  71.1412 206.8137  1.00274417 52242

SES-5
1 38652U 12036A   26170.25232105  .00000027  00000+0  00000+0 0  9999
2 38652   0.0455 317.3799 0001815 131.1664 274.7369  1.00271620 44472

VIASAT-1
1 37843U 11059A   26170.22852549 -.00000030  00000+0  00000+0 0  9996
2 37843   0.0184 345.3142 0002177 102.7769 146.5242  1.00271560 47345

VINASAT-2
1 38332U 12023B   26170.27747447 -.00000335  00000+0  00000+0 0  9995
2 38332   0.0135 354.0014 0002217 102.8505  42.3829  1.00269651 46682

WGS F4 (USA 233)
1 38070U 12003A   26170.12627193 -.00000221  00000+0  00000+0 0  9995
2 38070   0.0183  40.8037 0000639 263.2875  97.1299  1.00272211 44163

YAHSAT 1B
1 38245U 12016A   26170.26072777  .00000120  00000+0  00000+0 0  9997
2 38245   0.0906  89.7187 0002592  15.9420 303.2810  1.00272159 45629

ZHONGXING-2A
1 38352U 12028A   26169.91432547 -.00000299  00000+0  00000+0 0  9992
2 38352   1.4594  83.8471 0003837  47.1285 203.5563  1.00269343 51317
