OBJECT_NAME,OBJECT_ID,EPOCH,MEAN_MOTION,ECCENTRICITY,INCLINATION,RA_OF_ASC_NODE,ARG_OF_PERICENTER,MEAN_ANOMALY,EPHEMERIS_TYPE,CLASSIFICATION_TYPE,NORAD_CAT_ID,ELEMENT_SET_NO,REV_AT_EPOCH,BSTAR,MEAN_MOTION_DOT,MEAN_MOTION_DDOT
ASTRA 1N,2011-041A,2026-06-19T06:07:20.156160,1.00271786,.00063525,0.0707,25.8295,75.7319,276.9574,0,U,37775,999,4454,0,.114E-5,0
BSAT-3C (JCSAT-110R),2011-041B,2026-06-19T01:32:38.626080,1.00268522,.00000949,0.0172,334.2895,182.5935,243.5122,0,U,37776,999,5048,0,-.356E-5,0
PAKSAT-1R,2011-042A,2026-06-19T06:12:49.629600,1.00267406,.00033082,0.6954,84.5738,339.0487,335.0618,0,U,37779,999,5449,0,.147E-5,0
SES-2,2011-049A,2026-06-19T05:36:41.370624,1.00271850,.00026502,0.0676,97.3973,348.5232,178.7069,0,U,37809,999,5398,0,-.202E-5,0
ARABSAT-5C,2011-049B,2026-06-19T06:07:35.132736,1.00272638,.00034555,0.0545,22.8190,83.4496,273.1031,0,U,37810,999,5405,0,.117E-5,0
EUTELSAT 7 WEST A,2011-051A,2026-06-19T05:59:50.873568,1.00271742,.00041806,0.0666,19.9132,78.3339,251.8684,0,U,37816,999,5389,0,-.67E-6,0
QUETZSAT 1,2011-054A,2026-06-19T05:49:13.749600,1.00272217,.00025928,0.0305,55.4073,33.0971,189.2721,0,U,37826,999,4989,0,-.248E-5,0
INTELSAT 18 (IS-18),2011-056A,2026-06-19T05:03:38.511360,1.00271194,.00017605,0.0368,273.1459,174.3940,75.7990,0,U,37834,999,5383,0,.46E-6,0
EUTELSAT 16A,2011-057A,2026-06-19T06:06:27.739872,1.00269474,.00057001,0.0408,343.8201,104.3324,286.9607,0,U,37836,999,735,0,.98E-6,0
VIASAT-1,2011-059A,2026-06-19T05:29:04.602336,1.00271560,.00021773,0.0184,345.3142,102.7769,146.5242,0,U,37843,999,4734,0,-.3E-6,0
ASIASAT 7,2011-069A,2026-06-19T02:04:38.642304,1.00270992,.0001251,0.0383,84.2904,338.6783,341.0266,0,U,37933,999,4487,0,-.34E-5,0
BEIDOU-2 IGSO-5,2011-073A,2026-06-18T16:01:15.839616,1.00272695,.01139717,47.6748,271.5267,221.7702,105.6518,0,U,37948,999,5314,0,-.192E-5,0
LUCH-5A,2011-074B,2026-06-18T12:35:26.577888,1.00270425,.00023353,8.7582,73.7878,26.9496,161.8222,0,U,37951,999,5306,0,-.6E-6,0
NIGCOMSAT 1R,2011-077A,2026-06-19T04:31:25.981824,1.00270792,.00025765,0.0461,112.7931,238.1812,26.7765,0,U,38014,999,5297,0,.139E-5,0
WGS F4 (USA 233),2012-003A,2026-06-19T03:01:49.894752,1.00272211,.00006392,0.0183,40.8037,263.2875,97.1299,0,U,38070,999,4416,0,-.221E-5,0
SES-4,2012-007A,2026-06-19T04:12:57.753216,1.00274417,.00028261,0.0260,30.6944,71.1412,206.8137,0,U,38087,999,5224,0,-.174E-5,0
BEIDOU-2 G5,2012-008A,2026-06-19T02:53:20.707584,1.00272397,.00090735,3.5794,69.6867,272.9210,26.7337,0,U,38091,999,5238,0,.5E-6,0
MUOS-1,2012-009A,2026-06-19T05:50:45.039840,1.00269945,.00584749,5.4799,47.1510,1.9694,206.0192,0,U,38093,999,5246,0,-.135E-5,0
INTELSAT 22 (IS-22),2012-011A,2026-06-19T04:47:21.678144,1.00272420,.00015328,0.0152,39.7365,52.4251,319.2100,0,U,38098,999,720,0,-.65E-6,0
APSTAR-7,2012-013A,2026-06-19T04:41:02.560992,1.00271483,.00025773,0.0276,72.2983,24.5823,317.2969,0,U,38107,999,5182,0,-.108E-5,0
YAHSAT 1B,2012-016A,2026-06-19T06:15:26.879328,1.00272159,.00025922,0.0906,89.7187,15.9420,303.2810,0,U,38245,999,4562,0,.12E-5,0
AEHF-2 (USA 235),2012-019A,2026-06-19T00:49:07.198176,1.00271676,.00022529,6.6546,57.4758,25.6809,179.8214,0,U,38254,999,700,0,-.144E-5,0
JCSAT-13,2012-023A,2026-06-19T06:37:19.009344,1.00270087,.00031255,0.0228,60.7872,51.2856,18.7485,0,U,38331,999,5156,0,-.362E-5,0
VINASAT-2,2012-023B,2026-06-19T06:39:33.794208,1.00269651,.00022179,0.0135,354.0014,102.8505,42.3829,0,U,38332,999,4668,0,-.335E-5,0
NIMIQ 6,2012-026A,2026-06-19T05:53:25.969344,1.00272220,.00026114,0.0106,339.4156,104.3331,180.9693,0,U,38342,999,5043,0,-.18E-5,0
ZHONGXING-2A,2012-028A,2026-06-18T21:56:37.720608,1.00269343,.0003837,1.4594,83.8471,47.1285,203.5563,0,U,38352,999,5131,0,-.299E-5,0
INTELSAT 19 (IS-19),2012-030A,2026-06-19T03:24:01.207296,1.00271504,.00029475,0.0183,9.3106,86.6833,28.3730,0,U,38356,999,5047,0,-.63E-6,0
ECHOSTAR 17,2012-035A,2026-06-19T03:48:47.903328,1.00270885,.00021185,0.0181,15.1674,72.1043,130.2109,0,U,38551,999,5108,0,-.82E-6,0
METEOSAT-10 (MSG-3),2012-035B,2026-06-19T00:54:03.444768,1.00266258,.0001437,4.6769,61.0157,1.0805,218.9888,0,U,38552,999,5087,0,-.14E-6,0
SES-5,2012-036A,2026-06-19T06:03:20.538720,1.00271620,.00018155,0.0455,317.3799,131.1664,274.7369,0,U,38652,999,4447,0,.27E-6,0
INTELSAT 20 (IS-20),2012-043A,2026-06-19T02:56:12.933024,1.00269776,.00016113,0.0349,67.9275,107.7521,204.2199,0,U,38740,999,5076,0,0,0
HYLAS 2,2012-043B,2026-06-19T05:27:49.163040,1.00272349,.0002383,2.4335,81.0458,27.3107,168.4752,0,U,38741,999,5079,0,-.264E-5,0
